******** Week 158 almanac for PRN-01 ********
ID:                         01
Health:                     000
Eccentricity:               0.1178216934E-001
Time of Applicability(s):  503808.0000
Orbital Inclination(rad):   0.9877901504
Rate of Right Ascen(r/s):  -0.7851755629E-008
SQRT(A)  (m 1/2):           5153.623535
Right Ascen at Week(rad):  -0.3039745842E+001
Argument of Perigee(rad):   0.895880733
Mean Anom(rad):             0.1242162290E+001
Af0(s):                     0.3786087036E-003
Af1(s/s):                  -0.7275957614E-011
week:                        158

******** Week 158 almanac for PRN-02 ********
ID:                         02
Health:                     000
Eccentricity:               0.2047395706E-001
Time of Applicability(s):  503808.0000
Orbital Inclination(rad):   0.9659728690
Rate of Right Ascen(r/s):  -0.8034620388E-008
SQRT(A)  (m 1/2):           5153.601074
Right Ascen at Week(rad):  -0.3130351451E+001
Argument of Perigee(rad):  -1.423213219
Mean Anom(rad):             0.1389377632E+001
Af0(s):                    -0.6532669067E-003
Af1(s/s):                   0.0000000000E+000
week:                        158

******** Week 158 almanac for PRN-03 ********
ID:                         03
Health:                     000
Eccentricity:               0.4051208496E-002
Time of Applicability(s):  503808.0000
Orbital Inclination(rad):   0.9732053487
Rate of Right Ascen(r/s):  -0.7737465154E-008
SQRT(A)  (m 1/2):           5153.595703
Right Ascen at Week(rad):  -0.2005725945E+001
Argument of Perigee(rad):   0.945408538
Mean Anom(rad):             0.1238468527E+000
Af0(s):                    -0.2174377441E-003
Af1(s/s):                  -0.1455191523E-010
week:                        158

******** Week 158 almanac for PRN-04 ********
ID:                         04
Health:                     000
Eccentricity:               0.1794815063E-002
Time of Applicability(s):  503808.0000
Orbital Inclination(rad):   0.9610952895
Rate of Right Ascen(r/s):  -0.7748894201E-008
SQRT(A)  (m 1/2):           5153.573242
Right Ascen at Week(rad):  -0.9239661384E+000
Argument of Perigee(rad):  -2.975683793
Mean Anom(rad):             0.2970347817E+001
Af0(s):                    -0.1735687256E-003
Af1(s/s):                   0.3637978807E-011
week:                        158

******** Week 158 almanac for PRN-05 ********
ID:                         05
Health:                     000
Eccentricity:               0.5913257599E-002
Time of Applicability(s):  503808.0000
Orbital Inclination(rad):   0.9602384174
Rate of Right Ascen(r/s):  -0.7886042771E-008
SQRT(A)  (m 1/2):           5153.659180
Right Ascen at Week(rad):  -0.2047019464E+001
Argument of Perigee(rad):   1.013051623
Mean Anom(rad):            -0.2379831876E+001
Af0(s):                    -0.7915496826E-004
Af1(s/s):                   0.0000000000E+000
week:                        158

******** Week 158 almanac for PRN-06 ********
ID:                         06
Health:                     000
Eccentricity:               0.2619266510E-002
Time of Applicability(s):  503808.0000
Orbital Inclination(rad):   0.9871430023
Rate of Right Ascen(r/s):  -0.7851755629E-008
SQRT(A)  (m 1/2):           5153.666992
Right Ascen at Week(rad):  -0.3048017204E+001
Argument of Perigee(rad):  -0.873209575
Mean Anom(rad):             0.1489017474E+001
Af0(s):                     0.2765655518E-003
Af1(s/s):                   0.1455191523E-010
week:                        158

******** Week 158 almanac for PRN-07 ********
ID:                         07
Health:                     000
Eccentricity:               0.1593160629E-001
Time of Applicability(s):  503808.0000
Orbital Inclination(rad):   0.9512502487
Rate of Right Ascen(r/s):  -0.7908900866E-008
SQRT(A)  (m 1/2):           5153.610840
Right Ascen at Week(rad):   0.9416305114E-001
Argument of Perigee(rad):  -2.276133876
Mean Anom(rad):             0.5708648083E+000
Af0(s):                     0.3204345703E-003
Af1(s/s):                   0.0000000000E+000
week:                        158

******** Week 158 almanac for PRN-08 ********
ID:                         08
Health:                     000
Eccentricity:               0.7446765900E-002
Time of Applicability(s):  503808.0000
Orbital Inclination(rad):   0.9637917401
Rate of Right Ascen(r/s):  -0.7943188009E-008
SQRT(A)  (m 1/2):           5153.704590
Right Ascen at Week(rad):   0.2162379613E+001
Argument of Perigee(rad):   0.156185909
Mean Anom(rad):            -0.2844477128E+001
Af0(s):                    -0.6484985352E-004
Af1(s/s):                   0.0000000000E+000
week:                        158

******** Week 158 almanac for PRN-09 ********
ID:                         09
Health:                     000
Eccentricity:               0.2093315125E-002
Time of Applicability(s):  503808.0000
Orbital Inclination(rad):   0.9540905100
Rate of Right Ascen(r/s):  -0.7840326581E-008
SQRT(A)  (m 1/2):           5153.525391
Right Ascen at Week(rad):  -0.9774715830E+000
Argument of Perigee(rad):   1.882574551
Mean Anom(rad):            -0.2372800132E+001
Af0(s):                    -0.3423690796E-003
Af1(s/s):                   0.3637978807E-011
week:                        158

******** Week 158 almanac for PRN-10 ********
ID:                         10
Health:                     000
Eccentricity:               0.7584571838E-002
Time of Applicability(s):  503808.0000
Orbital Inclination(rad):   0.9730195932
Rate of Right Ascen(r/s):  -0.7760323249E-008
SQRT(A)  (m 1/2):           5153.636230
Right Ascen at Week(rad):  -0.2008491304E+001
Argument of Perigee(rad):  -2.493315370
Mean Anom(rad):            -0.7980770988E+000
Af0(s):                    -0.3881454468E-003
Af1(s/s):                  -0.1455191523E-010
week:                        158

******** Week 158 almanac for PRN-11 ********
ID:                         11
Health:                     063
Eccentricity:               0.3080368042E-003
Time of Applicability(s):  503808.0000
Orbital Inclination(rad):   0.9629348680
Rate of Right Ascen(r/s):  -0.8091765626E-008
SQRT(A)  (m 1/2):           5153.516602
Right Ascen at Week(rad):  -0.2997558000E+001
Argument of Perigee(rad):   2.873854958
Mean Anom(rad):            -0.2952110448E+001
Af0(s):                    -0.3528594971E-004
Af1(s/s):                   0.7275957614E-011
week:                        158

******** Week 158 almanac for PRN-12 ********
ID:                         12
Health:                     000
Eccentricity:               0.8705139160E-002
Time of Applicability(s):  503808.0000
Orbital Inclination(rad):   0.9695022232
Rate of Right Ascen(r/s):  -0.7726036106E-008
SQRT(A)  (m 1/2):           5153.515625
Right Ascen at Week(rad):   0.1207024168E+001
Argument of Perigee(rad):   1.275257850
Mean Anom(rad):            -0.4675233389E-001
Af0(s):                    -0.2040863037E-003
Af1(s/s):                  -0.7275957614E-011
week:                        158

******** Week 158 almanac for PRN-13 ********
ID:                         13
Health:                     000
Eccentricity:               0.5856990814E-002
Time of Applicability(s):  503808.0000
Orbital Inclination(rad):   0.9685614616
Rate of Right Ascen(r/s):  -0.7680319916E-008
SQRT(A)  (m 1/2):           5153.621094
Right Ascen at Week(rad):  -0.8235293455E+000
Argument of Perigee(rad):   0.928532877
Mean Anom(rad):             0.2981059841E+001
Af0(s):                     0.2985000610E-003
Af1(s/s):                   0.7275957614E-011
week:                        158

******** Week 158 almanac for PRN-14 ********
ID:                         14
Health:                     000
Eccentricity:               0.1736164093E-002
Time of Applicability(s):  503808.0000
Orbital Inclination(rad):   0.9529280402
Rate of Right Ascen(r/s):  -0.7874613724E-008
SQRT(A)  (m 1/2):           5153.604492
Right Ascen at Week(rad):   0.1174665263E+001
Argument of Perigee(rad):   3.064861032
Mean Anom(rad):            -0.3204244683E-001
Af0(s):                    -0.1039505005E-003
Af1(s/s):                  -0.3637978807E-011
week:                        158

******** Week 158 almanac for PRN-15 ********
ID:                         15
Health:                     000
Eccentricity:               0.1398897171E-001
Time of Applicability(s):  503808.0000
Orbital Inclination(rad):   0.9299363047
Rate of Right Ascen(r/s):  -0.8068907531E-008
SQRT(A)  (m 1/2):           5153.712402
Right Ascen at Week(rad):  -0.1085297400E+001
Argument of Perigee(rad):   1.087253450
Mean Anom(rad):             0.2478851909E+001
Af0(s):                    -0.6675720215E-004
Af1(s/s):                   0.3637978807E-011
week:                        158

******** Week 158 almanac for PRN-16 ********
ID:                         16
Health:                     000
Eccentricity:               0.1277160645E-001
Time of Applicability(s):  503808.0000
Orbital Inclination(rad):   0.9694003573
Rate of Right Ascen(r/s):  -0.7737465154E-008
SQRT(A)  (m 1/2):           5153.590820
Right Ascen at Week(rad):   0.1225607207E+001
Argument of Perigee(rad):   0.725382663
Mean Anom(rad):            -0.1908852212E+001
Af0(s):                    -0.4940032959E-003
Af1(s/s):                  -0.3637978807E-011
week:                        158

******** Week 158 almanac for PRN-17 ********
ID:                         17
Health:                     000
Eccentricity:               0.1345109940E-001
Time of Applicability(s):  503808.0000
Orbital Inclination(rad):   0.9790236899
Rate of Right Ascen(r/s):  -0.7840326581E-008
SQRT(A)  (m 1/2):           5153.750000
Right Ascen at Week(rad):   0.2245316067E+001
Argument of Perigee(rad):  -1.489501337
Mean Anom(rad):            -0.2914665737E+001
Af0(s):                     0.6036758423E-003
Af1(s/s):                   0.3637978807E-011
week:                        158

